[
  {
    "OBJECT_NAME": "STARLINK-31038",
    "OBJECT_ID": "23200S",
    "EPOCH": "2025-11-11T01:51:37.407456",
    "MEAN_MOTION": 15.02539156,
    "ECCENTRICITY": 0.0001376,
    "INCLINATION": 43.0039,
    "RA_OF_ASC_NODE": 94.6116,
    "ARG_OF_PERICENTER": 266.975,
    "MEAN_ANOMALY": 93.0935,
    "EPHEMERIS_TYPE": 0,
    "CLASSIFICATION_TYPE": "U",
    "NORAD_CAT_ID": 58605,
    "ELEMENT_SET_NO": 999,
    "REV_AT_EPOCH": 10575,
    "BSTAR": 0.00012534999999999998,
    "MEAN_MOTION_DOT": 1.49e-05,
    "MEAN_MOTION_DDOT": 0.0,
    "TLE_LINE1": "1 58605U 23200S   25315.07751629  .00001490  00000+0  12535-3 0  9996",
    "TLE_LINE2": "2 58605  43.0039  94.6116 0001376 266.9750  93.0935 15.02539156105758",
    "COMMENT": "Grouped by shell and plane from TLE"
  },
  {
    "OBJECT_NAME": "STARLINK-31082",
    "OBJECT_ID": "23200T",
    "EPOCH": "2025-11-11T01:56:25.090944",
    "MEAN_MOTION": 15.0254463,
    "ECCENTRICITY": 0.0001326,
    "INCLINATION": 43.0043,
    "RA_OF_ASC_NODE": 94.6376,
    "ARG_OF_PERICENTER": 271.528,
    "MEAN_ANOMALY": 88.5411,
    "EPHEMERIS_TYPE": 0,
    "CLASSIFICATION_TYPE": "U",
    "NORAD_CAT_ID": 58606,
    "ELEMENT_SET_NO": 999,
    "REV_AT_EPOCH": 10575,
    "BSTAR": 0.00016277,
    "MEAN_MOTION_DOT": 1.996e-05,
    "MEAN_MOTION_DDOT": 0.0,
    "TLE_LINE1": "1 58606U 23200T   25315.08084596  .00001996  00000+0  16277-3 0  9998",
    "TLE_LINE2": "2 58606  43.0043  94.6376 0001326 271.5280  88.5411 15.02544630105758",
    "COMMENT": "Grouped by shell and plane from TLE"
  },
  {
    "OBJECT_NAME": "STARLINK-31069",
    "OBJECT_ID": "23200U",
    "EPOCH": "2025-11-11T01:46:49.875168",
    "MEAN_MOTION": 15.0253757,
    "ECCENTRICITY": 8.86e-05,
    "INCLINATION": 43.0033,
    "RA_OF_ASC_NODE": 94.5856,
    "ARG_OF_PERICENTER": 265.3205,
    "MEAN_ANOMALY": 94.7536,
    "EPHEMERIS_TYPE": 0,
    "CLASSIFICATION_TYPE": "U",
    "NORAD_CAT_ID": 58607,
    "ELEMENT_SET_NO": 999,
    "REV_AT_EPOCH": 10575,
    "BSTAR": 0.0,
    "MEAN_MOTION_DOT": -4.37e-06,
    "MEAN_MOTION_DDOT": 0.0,
    "TLE_LINE1": "1 58607U 23200U   25315.07418837 -.00000437  00000+0 -17288-4 0  9992",
    "TLE_LINE2": "2 58607  43.0033  94.5856 0000886 265.3205  94.7536 15.02537570105750",
    "COMMENT": "Grouped by shell and plane from TLE"
  },
  {
    "OBJECT_NAME": "STARLINK-31067",
    "OBJECT_ID": "23200V",
    "EPOCH": "2025-11-10T16:07:40.223712",
    "MEAN_MOTION": 15.02539904,
    "ECCENTRICITY": 0.0001559,
    "INCLINATION": 43.0043,
    "RA_OF_ASC_NODE": 96.7284,
    "ARG_OF_PERICENTER": 272.2709,
    "MEAN_ANOMALY": 87.7955,
    "EPHEMERIS_TYPE": 0,
    "CLASSIFICATION_TYPE": "U",
    "NORAD_CAT_ID": 58608,
    "ELEMENT_SET_NO": 999,
    "REV_AT_EPOCH": 10569,
    "BSTAR": 0.00018551,
    "MEAN_MOTION_DOT": 2.303e-05,
    "MEAN_MOTION_DDOT": 0.0,
    "TLE_LINE1": "1 58608U 23200V   25314.67199333  .00002303  00000+0  18551-3 0  9990",
    "TLE_LINE2": "2 58608  43.0043  96.7284 0001559 272.2709  87.7955 15.02539904105698",
    "COMMENT": "Grouped by shell and plane from TLE"
  },
  {
    "OBJECT_NAME": "STARLINK-31085",
    "OBJECT_ID": "23200W",
    "EPOCH": "2025-11-10T11:15:41.387328",
    "MEAN_MOTION": 15.0253398,
    "ECCENTRICITY": 0.0001476,
    "INCLINATION": 43.0035,
    "RA_OF_ASC_NODE": 97.7859,
    "ARG_OF_PERICENTER": 260.1848,
    "MEAN_ANOMALY": 99.8828,
    "EPHEMERIS_TYPE": 0,
    "CLASSIFICATION_TYPE": "U",
    "NORAD_CAT_ID": 58609,
    "ELEMENT_SET_NO": 999,
    "REV_AT_EPOCH": 10566,
    "BSTAR": 0.00013436,
    "MEAN_MOTION_DOT": 1.612e-05,
    "MEAN_MOTION_DDOT": 0.0,
    "TLE_LINE1": "1 58609U 23200W   25314.46922902  .00001612  00000+0  13436-3 0  9993",
    "TLE_LINE2": "2 58609  43.0035  97.7859 0001476 260.1848  99.8828 15.02533980105665",
    "COMMENT": "Grouped by shell and plane from TLE"
  },
  {
    "OBJECT_NAME": "STARLINK-31089",
    "OBJECT_ID": "23200X",
    "EPOCH": "2025-11-10T19:00:07.676064",
    "MEAN_MOTION": 15.02536298,
    "ECCENTRICITY": 0.0001412,
    "INCLINATION": 43.0023,
    "RA_OF_ASC_NODE": 96.7058,
    "ARG_OF_PERICENTER": 268.4394,
    "MEAN_ANOMALY": 91.6286,
    "EPHEMERIS_TYPE": 0,
    "CLASSIFICATION_TYPE": "U",
    "NORAD_CAT_ID": 58610,
    "ELEMENT_SET_NO": 999,
    "REV_AT_EPOCH": 10570,
    "BSTAR": 0.00018077,
    "MEAN_MOTION_DOT": 2.239e-05,
    "MEAN_MOTION_DDOT": 0.0,
    "TLE_LINE1": "1 58610U 23200X   25314.79175551  .00002239  00000+0  18077-3 0  9993",
    "TLE_LINE2": "2 58610  43.0023  96.7058 0001412 268.4394  91.6286 15.02536298105709",
    "COMMENT": "Grouped by shell and plane from TLE"
  },
  {
    "OBJECT_NAME": "STARLINK-31061",
    "OBJECT_ID": "23200Y",
    "EPOCH": "2025-11-10T15:58:04.929312",
    "MEAN_MOTION": 15.02540452,
    "ECCENTRICITY": 0.0001498,
    "INCLINATION": 43.0031,
    "RA_OF_ASC_NODE": 96.6771,
    "ARG_OF_PERICENTER": 268.3525,
    "MEAN_ANOMALY": 91.7145,
    "EPHEMERIS_TYPE": 0,
    "CLASSIFICATION_TYPE": "U",
    "NORAD_CAT_ID": 58611,
    "ELEMENT_SET_NO": 999,
    "REV_AT_EPOCH": 10569,
    "BSTAR": 3.3343e-05,
    "MEAN_MOTION_DOT": 2.47e-06,
    "MEAN_MOTION_DDOT": 0.0,
    "TLE_LINE1": "1 58611U 23200Y   25314.66533483  .00000247  00000+0  33343-4 0  9993",
    "TLE_LINE2": "2 58611  43.0031  96.6771 0001498 268.3525  91.7145 15.02540452105699",
    "COMMENT": "Grouped by shell and plane from TLE"
  },
  {
    "OBJECT_NAME": "STARLINK-32575",
    "OBJECT_ID": "24225L",
    "EPOCH": "2025-11-10T16:24:11.589408",
    "MEAN_MOTION": 14.98354623,
    "ECCENTRICITY": 0.0002721,
    "INCLINATION": 70.0004,
    "RA_OF_ASC_NODE": 94.3216,
    "ARG_OF_PERICENTER": 271.7335,
    "MEAN_ANOMALY": 88.3512,
    "EPHEMERIS_TYPE": 0,
    "CLASSIFICATION_TYPE": "U",
    "NORAD_CAT_ID": 62173,
    "ELEMENT_SET_NO": 999,
    "REV_AT_EPOCH": 5230,
    "BSTAR": 0.0003959,
    "MEAN_MOTION_DOT": 4.637e-05,
    "MEAN_MOTION_DDOT": 0.0,
    "TLE_LINE1": "1 62173U 24225L   25314.68346747  .00004637  00000+0  39590-3 0  9992",
    "TLE_LINE2": "2 62173  70.0004  94.3216 0002721 271.7335  88.3512 14.98354623 52309",
    "COMMENT": "Grouped by shell and plane from TLE"
  },
  {
    "OBJECT_NAME": "STARLINK-32600",
    "OBJECT_ID": "24225R",
    "EPOCH": "2025-11-10T16:00:12.282048",
    "MEAN_MOTION": 14.98356565,
    "ECCENTRICITY": 0.0003322,
    "INCLINATION": 70.0009,
    "RA_OF_ASC_NODE": 94.6638,
    "ARG_OF_PERICENTER": 272.9486,
    "MEAN_ANOMALY": 87.1293,
    "EPHEMERIS_TYPE": 0,
    "CLASSIFICATION_TYPE": "U",
    "NORAD_CAT_ID": 62178,
    "ELEMENT_SET_NO": 999,
    "REV_AT_EPOCH": 5229,
    "BSTAR": 0.00085444,
    "MEAN_MOTION_DOT": 0.00010124,
    "MEAN_MOTION_DDOT": 0.0,
    "TLE_LINE1": "1 62178U 24225R   25314.66680882  .00010124  00000+0  85444-3 0  9993",
    "TLE_LINE2": "2 62178  70.0009  94.6638 0003322 272.9486  87.1293 14.98356565 52296",
    "COMMENT": "Grouped by shell and plane from TLE"
  },
  {
    "OBJECT_NAME": "STARLINK-32602",
    "OBJECT_ID": "24225U",
    "EPOCH": "2025-11-11T04:25:13.224576",
    "MEAN_MOTION": 14.98348895,
    "ECCENTRICITY": 0.000304,
    "INCLINATION": 70.0031,
    "RA_OF_ASC_NODE": 93.2644,
    "ARG_OF_PERICENTER": 271.6311,
    "MEAN_ANOMALY": 88.45,
    "EPHEMERIS_TYPE": 0,
    "CLASSIFICATION_TYPE": "U",
    "NORAD_CAT_ID": 62181,
    "ELEMENT_SET_NO": 999,
    "REV_AT_EPOCH": 5237,
    "BSTAR": 0.00093278,
    "MEAN_MOTION_DOT": 0.0001106,
    "MEAN_MOTION_DDOT": 0.0,
    "TLE_LINE1": "1 62181U 24225U   25315.18418084  .00011060  00000+0  93278-3 0  9992",
    "TLE_LINE2": "2 62181  70.0031  93.2644 0003040 271.6311  88.4500 14.98348895 52378",
    "COMMENT": "Grouped by shell and plane from TLE"
  },
  {
    "OBJECT_NAME": "STARLINK-32581",
    "OBJECT_ID": "24225X",
    "EPOCH": "2025-11-11T02:25:02.153568",
    "MEAN_MOTION": 14.98349466,
    "ECCENTRICITY": 0.0003652,
    "INCLINATION": 70.0002,
    "RA_OF_ASC_NODE": 93.3677,
    "ARG_OF_PERICENTER": 271.2436,
    "MEAN_ANOMALY": 88.8305,
    "EPHEMERIS_TYPE": 0,
    "CLASSIFICATION_TYPE": "U",
    "NORAD_CAT_ID": 62184,
    "ELEMENT_SET_NO": 999,
    "REV_AT_EPOCH": 5236,
    "BSTAR": 0.00060013,
    "MEAN_MOTION_DOT": 7.079e-05,
    "MEAN_MOTION_DDOT": 0.0,
    "TLE_LINE1": "1 62184U 24225X   25315.10071937  .00007079  00000+0  60013-3 0  9995",
    "TLE_LINE2": "2 62184  70.0002  93.3677 0003652 271.2436  88.8305 14.98349466 52360",
    "COMMENT": "Grouped by shell and plane from TLE"
  }
]